{
  "type": "FeatureCollection",
  "name": "Fairfax County Fire and Rescue Stations",
  "metadata": {
    "source": "Fairfax County Open Data, OpenData_S1 FeatureServer layer 6",
    "source_url": "https://services1.arcgis.com/ioennV6PpG5Xodq0/ArcGIS/rest/services/OpenData_S1/FeatureServer/6",
    "retrieved": "2026-08-31",
    "license_note": "Public geographic reference data; verify against the authoritative source before operational use.",
    "concept_note": "Battalion assignments and all operational activity in Aegis Command are synthetic. This project is not affiliated with or endorsed by Fairfax County."
  },
  "features": [
    {"type":"Feature","properties":{"station_id":"fs-01","station_number":"1","name":"McLean","address":"1455 Laughlin Avenue, McLean, VA 22101"},"geometry":{"type":"Point","coordinates":[-77.1776483432866,38.9316607869653]}},
    {"type":"Feature","properties":{"station_id":"fs-02","station_number":"2","name":"Vienna","address":"400 Center Street SW, Vienna, VA 22180"},"geometry":{"type":"Point","coordinates":[-77.261452143503,38.8991069115818]}},
    {"type":"Feature","properties":{"station_id":"fs-04","station_number":"4","name":"Herndon","address":"680 Spring Street, Herndon, VA 20170"},"geometry":{"type":"Point","coordinates":[-77.3859482669853,38.9690891293123]}},
    {"type":"Feature","properties":{"station_id":"fs-05","station_number":"5","name":"Franconia","address":"6300 Beulah Street, Alexandria, VA 22310"},"geometry":{"type":"Point","coordinates":[-77.1463251306487,38.7807611164366]}},
    {"type":"Feature","properties":{"station_id":"fs-08","station_number":"8","name":"Annandale","address":"7128 Columbia Pike, Annandale, VA 22003"},"geometry":{"type":"Point","coordinates":[-77.1917247790889,38.8325291125047]}},
    {"type":"Feature","properties":{"station_id":"fs-09","station_number":"9","name":"Mount Vernon","address":"2601 Sherwood Hall Lane, Alexandria, VA 22306"},"geometry":{"type":"Point","coordinates":[-77.0773580416409,38.7427693966341]}},
    {"type":"Feature","properties":{"station_id":"fs-10","station_number":"10","name":"Bailey's Crossroads","address":"3601 Firehouse Lane, Falls Church, VA 22041"},"geometry":{"type":"Point","coordinates":[-77.1393118348108,38.8454872527018]}},
    {"type":"Feature","properties":{"station_id":"fs-11","station_number":"11","name":"Penn Daw","address":"6624 Hulvey Terrace, Alexandria, VA 22306"},"geometry":{"type":"Point","coordinates":[-77.0794463403167,38.7730475465307]}},
    {"type":"Feature","properties":{"station_id":"fs-12","station_number":"12","name":"Great Falls","address":"9916 Georgetown Pike, Great Falls, VA 22066"},"geometry":{"type":"Point","coordinates":[-77.2909399214757,38.9987104215429]}},
    {"type":"Feature","properties":{"station_id":"fs-13","station_number":"13","name":"Dunn Loring","address":"2148 Gallows Road, Dunn Loring, VA 22027"},"geometry":{"type":"Point","coordinates":[-77.2236660681233,38.9025210149728]}},
    {"type":"Feature","properties":{"station_id":"fs-14","station_number":"14","name":"Burke","address":"9501 Old Burke Lake Road, Burke, VA 22015"},"geometry":{"type":"Point","coordinates":[-77.2719436845924,38.7932065483702]}},
    {"type":"Feature","properties":{"station_id":"fs-15","station_number":"15","name":"Chantilly","address":"14005 Vernon Street, Chantilly, VA 20151"},"geometry":{"type":"Point","coordinates":[-77.4315784221288,38.8919145472646]}},
    {"type":"Feature","properties":{"station_id":"fs-16","station_number":"16","name":"Clifton","address":"12645 Chapel Road, Clifton, VA 20124"},"geometry":{"type":"Point","coordinates":[-77.3847863011269,38.7809099553765]}},
    {"type":"Feature","properties":{"station_id":"fs-17","station_number":"17","name":"Centreville","address":"5856 Old Centreville Road, Centreville, VA 20121"},"geometry":{"type":"Point","coordinates":[-77.4299165680274,38.8369783588162]}},
    {"type":"Feature","properties":{"station_id":"fs-18","station_number":"18","name":"Jefferson","address":"3101 Hodge Place, Falls Church, VA 22042"},"geometry":{"type":"Point","coordinates":[-77.1929334506848,38.8658244628751]}},
    {"type":"Feature","properties":{"station_id":"fs-19","station_number":"19","name":"Lorton","address":"7701 Armistead Road, Lorton, VA 22079"},"geometry":{"type":"Point","coordinates":[-77.210038007148,38.7037148316176]}},
    {"type":"Feature","properties":{"station_id":"fs-20","station_number":"20","name":"Gunston","address":"10417 Gunston Road, Lorton, VA 22079"},"geometry":{"type":"Point","coordinates":[-77.1940409124196,38.6734465198374]}},
    {"type":"Feature","properties":{"station_id":"fs-21","station_number":"21","name":"Fair Oaks","address":"12300 Route 50, Fairfax, VA 22033"},"geometry":{"type":"Point","coordinates":[-77.3706126781893,38.8713250473584]}},
    {"type":"Feature","properties":{"station_id":"fs-22","station_number":"22","name":"Springfield","address":"7011 Backlick Road, Springfield, VA 22150"},"geometry":{"type":"Point","coordinates":[-77.1838095197272,38.7661283893927]}},
    {"type":"Feature","properties":{"station_id":"fs-23","station_number":"23","name":"West Annandale","address":"8914 Little River Turnpike, Fairfax, VA 22031"},"geometry":{"type":"Point","coordinates":[-77.2519384464863,38.8391398402518]}},
    {"type":"Feature","properties":{"station_id":"fs-24","station_number":"24","name":"Woodlawn","address":"8701 Lukens Lane, Alexandria, VA 22309"},"geometry":{"type":"Point","coordinates":[-77.1192750437806,38.7215073641292]}},
    {"type":"Feature","properties":{"station_id":"fs-25","station_number":"25","name":"Reston","address":"1820 Wiehle Avenue, Reston, VA 20190"},"geometry":{"type":"Point","coordinates":[-77.3358586294914,38.950989022136]}},
    {"type":"Feature","properties":{"station_id":"fs-26","station_number":"26","name":"Edsall Road","address":"5316 Carolina Place, Springfield, VA 22151"},"geometry":{"type":"Point","coordinates":[-77.1711093493625,38.8051989960322]}},
    {"type":"Feature","properties":{"station_id":"fs-27","station_number":"27","name":"West Springfield","address":"6140 Rolling Road, Springfield, VA 22152"},"geometry":{"type":"Point","coordinates":[-77.2374168100562,38.7836174609545]}},
    {"type":"Feature","properties":{"station_id":"fs-28","station_number":"28","name":"Fort Buffalo","address":"2949 Sleepy Hollow Road, Falls Church, VA 22044"},"geometry":{"type":"Point","coordinates":[-77.1567280895283,38.8704074044947]}},
    {"type":"Feature","properties":{"station_id":"fs-29","station_number":"29","name":"Tysons Corner","address":"1560 Spring Hill Road, McLean, VA 22102"},"geometry":{"type":"Point","coordinates":[-77.2392987121629,38.9291119737015]}},
    {"type":"Feature","properties":{"station_id":"fs-30","station_number":"30","name":"Merrifield","address":"8739 Route 29, Fairfax, VA 22031"},"geometry":{"type":"Point","coordinates":[-77.2482309978258,38.872441521102]}},
    {"type":"Feature","properties":{"station_id":"fs-31","station_number":"31","name":"Fox Mill","address":"2610 Reston Parkway, Herndon, VA 20171"},"geometry":{"type":"Point","coordinates":[-77.3735165666387,38.9262325681038]}},
    {"type":"Feature","properties":{"station_id":"fs-32","station_number":"32","name":"Fairview","address":"5600 Burke Centre Parkway, Fairfax Station, VA 22039"},"geometry":{"type":"Point","coordinates":[-77.3264450184528,38.7984604936294]}},
    {"type":"Feature","properties":{"station_id":"fs-34","station_number":"34","name":"Oakton","address":"10511 Rosehaven Street, Fairfax, VA 22030"},"geometry":{"type":"Point","coordinates":[-77.3086912420632,38.876177075912]}},
    {"type":"Feature","properties":{"station_id":"fs-35","station_number":"35","name":"Pohick","address":"7801 Maritime Lane, Springfield, VA 22153"},"geometry":{"type":"Point","coordinates":[-77.2529479406366,38.7460525715812]}},
    {"type":"Feature","properties":{"station_id":"fs-36","station_number":"36","name":"Frying Pan","address":"2660 West Ox Road, Herndon, VA 20171"},"geometry":{"type":"Point","coordinates":[-77.4140485553488,38.9369476936454]}},
    {"type":"Feature","properties":{"station_id":"fs-37","station_number":"37","name":"Kingstowne","address":"7936 Telegraph Road, Alexandria, VA 22315"},"geometry":{"type":"Point","coordinates":[-77.1590303808163,38.7427343868581]}},
    {"type":"Feature","properties":{"station_id":"fs-38","station_number":"38","name":"West Centreville","address":"6001 ODay Drive, Centreville, VA 20120"},"geometry":{"type":"Point","coordinates":[-77.4532822823681,38.843401775481]}},
    {"type":"Feature","properties":{"station_id":"fs-39","station_number":"39","name":"North Point","address":"1117 Reston Avenue, Herndon, VA 20170"},"geometry":{"type":"Point","coordinates":[-77.3429077737102,38.9981529816229]}},
    {"type":"Feature","properties":{"station_id":"fs-40","station_number":"40","name":"Fairfax Center","address":"4621 Legato Road, Fairfax, VA 22030"},"geometry":{"type":"Point","coordinates":[-77.3652380789914,38.8485735279234]}},
    {"type":"Feature","properties":{"station_id":"fs-41","station_number":"41","name":"Crosspointe","address":"9610 Hampton Road, Fairfax Station, VA 22039"},"geometry":{"type":"Point","coordinates":[-77.2785848500557,38.7194916085003]}},
    {"type":"Feature","properties":{"station_id":"fs-42","station_number":"42","name":"Wolftrap","address":"1315 Beulah Road, Vienna, VA 22182"},"geometry":{"type":"Point","coordinates":[-77.2749639177052,38.957281682589]}},
    {"type":"Feature","properties":{"station_id":"fs-44","station_number":"44","name":"Scotts Run","address":"1775 Old Meadow Lane, McLean, VA 22102"},"geometry":{"type":"Point","coordinates":[-77.2148631098319,38.9194542541309]}}
  ]
}
